0 ATLAS 5 CENTAUR R/B
1 29056U 06012B   22230.53949236 -.00000052  00000-0  00000-0 0  9999
2 29056  24.6432 346.2683 5381763 346.6347   4.6663  1.96350073117124
0 OPS 4682 DEB
1 29059U 65027BJ  22232.26681600  .00000026  00000-0  68615-4 0  9993
2 29059  90.2660 335.1940 0028611 282.2097 105.2957 12.93573478974966
0 OPS 4682 DEB
1 29060U 65027BK  22230.78187062  .00000265  00000-0  92940-3 0  9995
2 29060  90.2650 338.8601 0028480 263.3117 250.3515 12.94196245283192
0 OPS 4682 DEB
1 29061U 65027BL  22231.03601167  .00000440  00000-0  15649-2 0  9997
2 29061  90.2592 346.0685 0029838 278.7800 132.7691 12.94006835 47537
0 SL-14 DEB
1 29065U 78100AX  22232.05085889  .00000015  00000-0  82712-4 0  9992
2 29065  82.5361  81.1478 0017512 169.5024 345.6731 11.98713021411751
0 METEOR 2-17 DEB
1 29067U 88005M   22231.50884162  .00000232  00000-0  15201-3 0  9998
2 29067  82.5256 298.2132 0040295 204.4664 155.4592 13.97869184454737
0 DMSP 5D-2 F11 DEB
1 29068U 91082BP  22232.44546140  .00027310  00000-0  40244-2 0  9993
2 29068  98.8523  91.6063 0037093 321.5823  38.2743 14.74835332441964
0 DMSP 5D-2 F11 DEB
1 29069U 91082BQ  22230.98222670  .00002469  00000-0  10989-2 0  9991
2 29069  99.0035 245.2111 0086123 129.3702 263.1159 14.21846267916750
0 DMSP 5D-2 F11 DEB
1 29070U 91082BR  22231.44892022  .00002763  00000-0  94914-3 0  9997
2 29070  98.6529 292.0397 0011271 355.7968   4.3122 14.36846158929453
0 DMSP 5D-2 F11 DEB
1 29071U 91082BS  22232.25328130  .00002009  00000-0  96139-3 0  9996
2 29071  99.0338 245.7118 0092411 267.6354  91.4238 14.18050124932514
0 DMSP 5D-2 F11 DEB
1 29072U 91082BT  22232.57052723  .00034838  00000-0  41700-2 0  9992
2 29072  98.9012 103.1209 0042006 337.7097  22.2287 14.83388094937038
0 DMSP 5D-2 F11 DEB
1 29073U 91082BU  22231.98170099  .00003771  00000-0  11644-2 0  9990
2 29073  98.5978 294.7128 0013259 220.0048 140.0165 14.41877291479087
0 DMSP 5D-2 F11 DEB
1 29074U 91082BV  22230.37486960  .00002226  00000-0  83207-3 0  9999
2 29074  98.6715 283.5049 0011669  52.9810 307.2439 14.32801741931922
0 DMSP 5D-2 F11 DEB
1 29077U 91082BY  22231.57952640  .00003082  00000-0  15965-2 0  9994
2 29077  98.6903 359.6344 0098799 313.4772  45.8216 14.13101116926625
0 DMSP 5D-2 F11 DEB
1 29078U 91082BZ  22229.86634056  .00002063  00000-0  83625-3 0  9999
2 29078  98.7619 282.6862 0022390 170.5216 189.6392 14.28681768419766
0 EROS B
1 29079U 06014A   22232.41919300  .00010265  00000-0  40951-3 0  9992
2 29079  97.3898 352.2862 0005709  86.5247 358.3789 15.25355181906121
0 DMSP 5D-2 F11 DEB
1 29082U 91082CB  22231.28785294  .00035354  00000-0  43093-2 0  9997
2 29082  98.6308  55.1380 0008689 161.9692 198.1829 14.83235718935988
0 DMSP 5D-2 F11 DEB
1 29083U 91082CC  22231.68819582  .00005422  00000-0  14912-2 0  9991
2 29083  98.6085 315.1530 0014218 143.7495 216.4663 14.47298765930617
0 DMSP 5D-2 F11 DEB
1 29086U 91082CF  22230.61191183  .00013559  00000-0  27257-2 0  9992
2 29086  98.6403 357.7474 0006853   6.0735  60.5254 14.61718285907424
0 DMSP 5D-2 F11 DEB
1 29087U 91082CG  22230.47287934  .00004712  00000-0  13831-2 0  9991
2 29087  98.6494 311.6700 0011022 183.3195 176.7924 14.44255233950207
0 DMSP 5D-2 F11 DEB
1 29088U 91082CH  22232.14460705  .00003530  00000-0  10969-2 0  9993
2 29088  98.5923 295.7864 0011245 212.6438 147.4056 14.41623523479676
0 DMSP 5D-2 F11 DEB
1 29090U 91082CK  22229.97638296  .00003884  00000-0  11970-2 0  9990
2 29090  98.6930 285.6330 0013665 275.9565  84.0066 14.41965690948464
0 YAOGAN 1
1 29092U 06015A   22232.55443795  .00000353  00000-0  49341-4 0  9993
2 29092  97.8708 259.5970 0001514  91.1707 268.9680 14.83489836882445
0 CZ-4B R/B
1 29093U 06015B   22232.55980477  .00024856  00000-0  27683-3 0  9995
2 29093  97.5923  96.6386 0034311 307.8141  52.0011 15.62088182909552
0 SL-16 DEB
1 29094U 92093JQ  22231.21451043  .00002855  00000-0  11238-2 0  9994
2 29094  71.2905 310.1349 0134098 112.1832 249.3590 14.25155602 29604
0 SL-16 DEB *
1 29096U 93016AK  22228.13710300  .00064217  00000-0  38072-2 0  9998
2 29096  70.9116 179.2430 0030857 160.9497 199.2837 15.10624806487693
0 SL-16 DEB
1 29097U 93016AL  22227.76080969  .00000078  00000-0  86966-4 0  9990
2 29097  71.0061 138.6112 0125362 145.0712 246.5851 13.93870109 78811
0 SL-16 DEB
1 29098U 93016AM  22231.35600873  .00000544  00000-0  31072-3 0  9998
2 29098  70.9111 233.2858 0082635 145.3655 279.5417 14.12410117473059
0 SL-16 DEB
1 29100U 93016AP  22231.46264667  .00000346  00000-0  22448-3 0  9998
2 29100  70.7344 145.4657 0078456 318.3560  41.1599 14.08354309 34358
0 SL-16 DEB *
1 29101U 93016AQ  22230.33983324  .00005052  00000-0  15780-2 0  9991
2 29101  70.9266 111.9542 0112419 225.5271 133.6631 14.37653954 15725
0 SL-16 DEB *
1 29102U 93016AR  22230.35437707  .00010121  00000-0  31369-2 0  9997
2 29102  70.9297 235.6660 0103326 346.6328  13.2071 14.38279603478809
0 PSLV DEB
1 29104U 01049PN  22232.33173624  .00050691  00000-0  10612-2 0  9993
2 29104  97.4179 264.4402 0008166 238.0767 121.9688 15.45253192506015
0 SL-16 DEB
1 29105U 04021G   22232.40355024  .00001823  00000-0  14786-2 0  9990
2 29105  70.9239 223.6875 0201969 108.6957 253.6188 13.82290713459787
0 MSG 2 DEB (COOLER COVER)
1 29106U 05049E   22231.59218866  .00000072  00000-0  00000-0 0  9990
2 29106  10.7531  39.8209 0009875 157.8766 157.2293  1.01169683 60771
0 CLOUDSAT
1 29107U 06016A   22232.55532829  .00000162  00000-0  41035-4 0  9998
2 29107  98.3327 193.3138 0004636 104.2911 255.8806 14.63045050868406
0 CALIPSO
1 29108U 06016B   22232.55478226  .00000568  00000-0  12023-3 0  9993
2 29108  98.3299 192.8557 0001347  85.3171 274.8184 14.63025719868395
0 DELTA 2 DEB (DPAF)
1 29110U 06016D   22232.57129299  .00002574  00000-0  36676-3 0  9990
2 29110  98.4202  38.3911 0002520 205.9184 219.7568 14.77729776874951
0 METEOR 3-1 DEB
1 29136U 85100C   22230.42221417  .00000390  00000-0  90009-3 0  9990
2 29136  82.5460 278.2186 0053989 154.6825 217.7725 13.22219960881741
0 TRANSIT 14 DEB
1 29138U 66076J   22232.32492576  .00014189  00000-0  70993-2 0  9990
2 29138  88.8223 177.9982 0033390  23.1646 337.1038 14.16325588833720
0 THOR BURNER 2A DEB
1 29139U 74015F   22230.67114966  .00000562  00000-0  23080-3 0  9999
2 29139  99.0008 165.0648 0063516 294.5486 184.2753 14.30101870473606
0 GOES 13
1 29155U 06018A   22232.51870466  .00000032  00000-0  00000-0 0  9990
2 29155   0.7502  96.4714 0005762 102.6714  17.8065  1.00275107 29371
0 DELTA 4 R/B
1 29156U 06018B   22232.48144480 -.00000343  00000-0  00000-0 0  9993
2 29156  13.0290  63.8012 5216068  87.3823 109.0682  1.93076663114495
0 EUTE 113 WEST A(SATMEX 6
1 29162U 06020A   22232.54332137 -.00000042  00000-0  00000+0 0  9993
2 29162   0.0027 359.7337 0002998 146.0706 265.6408  1.00271165 59468
0 THAICOM 5
1 29163U 06020B   22232.56201661 -.00000048  00000-0  00000-0 0  9990
2 29163   2.4085  89.3520 0005895  62.1163 214.0467  0.99207672 59397
0 ARIANE 5 DEB (SYLDA)
1 29164U 06020C   22231.97435927  .00063198  00000-0  38542-2 0  9997
2 29164   6.8318  60.4588 4399300 333.8862   9.3217  6.72317415282664
0 ARIANE 5 R/B
1 29165U 06020D   22232.36292351  .00001242  00000-0  55368-3 0  9992
2 29165   6.8764  23.1910 5627864  88.5199 331.8323  4.55669676181490
0 SCOUT B DEB
1 29168U 65063S   22231.34394034  .00001011  00000-0  36967-2 0  9992
2 29168  69.2632 102.0398 0694241 272.9356 256.7501 12.34947445728263
0 SCOUT B DEB
1 29178U 65063AC  22230.22831735  .00000265  00000-0  19903-2 0  9994
2 29178  69.2132  37.9981 0762097 137.5154  32.2704 11.84912093750813
0 TRANSIT 15 DEB
1 29180U 67034J   22230.33860784  .00023070  00000-0  96476-2 0  9994
2 29180  90.1940 356.8324 0054040 200.2468 159.6583 14.25185137821141
0 DELTA 1 DEB
1 29181U 68002E   22228.88521856 -.00000177  00000-0 -30176-3 0  9993
2 29181 105.7925 120.2011 0309143 342.8466  16.2348 12.91128998803243
0 DELTA 1 DEB
1 29182U 68002F   22210.90920541  .00000119  00000-0  42114-3 0  9991
2 29182 105.8222  93.4477 0263264 264.4779  92.6234 13.20263409862901
0 DELTA 1 DEB
1 29183U 68002G   22232.60519976  .00001692  00000-0  31544-2 0  9990
2 29183 105.7990  13.0691 0252720 261.4275 169.2197 13.30710548884288
0 DELTA 1 DEB
1 29184U 68002H   22232.50253662  .00000278  00000-0  82877-3 0  9992
2 29184 105.8255 309.0703 0267231  96.3207 266.8384 13.12857979835412
0 DELTA 1 DEB
1 29185U 68002J   22231.36078287  .00000610  00000-0  15387-2 0  9995
2 29185 105.7902  86.4112 0247963 193.9147 165.5019 13.16918597282850
0 DELTA 1 DEB
1 29186U 68002K   22231.04455737  .00000064  00000-0  42622-3 0  9996
2 29186 105.7839 159.3895 0310643 305.4708  66.3481 12.92166045837838
0 DELTA 1 DEB
1 29187U 68002L   22229.90475337  .00000198  00000-0  85248-3 0  9996
2 29187 105.8007 110.6816 0301499   4.3178  10.2434 12.90564770421543
0 DELTA 1 DEB
1 29189U 68002N   22231.39579208  .00000617  00000-0  16756-2 0  9999
2 29189 105.8340 283.7969 0250259 100.8074 277.5330 13.11672881346018
0 DELTA 1 DEB
1 29190U 68002P   22218.02059436  .00000261  00000-0  70783-3 0  9998
2 29190 105.8459 128.7450 0288295 321.6456  36.4446 13.18624545 41778
0 COSMOS 860 COOLANT
1 29194U 76103G   22231.79266672  .00000322  00000-0  29490-3 0  9991
2 29194  64.6870  50.1262 0054218 202.4068 157.4627 13.96870053976024
0 COSMOS 860 COOLANT
1 29195U 76103H   22229.84804750  .00000053  00000-0  12305-3 0  9998
2 29195  64.6980  84.3577 0066156 214.9984 144.6719 13.86260054445624
0 COSMOS 860 COOLANT
1 29196U 76103J   22232.01692427  .00000051  00000-0  12106-3 0  9995
2 29196  64.6980  74.9502 0066589 214.4559 223.1069 13.86349967461328
0 ATLAS F DEB
1 29197U 78047C   22232.32139097  .00039267  00000-0  48205-1 0  9996
2 29197  63.9080 123.5788 2728402  63.4591  24.3694  9.25065518612102
0 METEOR 2-5 DEB
1 29198U 79095P   22231.83669307  .00002562  00000-0  80270-3 0  9996
2 29198  81.2015 269.4072 0015213 171.6402 188.5042 14.40362218467074
